      2.10          N: GNSS NAV DATA                        RINEX VERSION / TYPE
fic2rin                                 04/15/2022 00:17:33 PGM / RUN BY / DATE
                                                            END OF HEADER
21 22  4 14 10  0  0.0 1.604272983968e-04 3.410605131648e-13 0.000000000000e+00
    7.200000000000e+01 8.840625000000e+01 4.065526488354e-09-1.896934853671e+00
    4.909932613373e-06 2.440160792321e-02 1.153536140919e-05 5.153778085709e+03
    3.816000000000e+05-3.278255462646e-07-3.006151307594e+00 4.656612873077e-07
    9.602208925058e-01 1.640312500000e+02-9.659505281967e-01-7.924972964077e-09
    4.764484174176e-10 1.000000000000e+00 2.205000000000e+03 0.000000000000e+00
    2.400000000000e+00 0.000000000000e+00-1.024454832077e-08 7.200000000000e+01
    3.744000000000e+05 4.000000000000e+00
26 22  4 14 10  0  0.0 1.985100097954e-04 2.842170943040e-12 0.000000000000e+00
    3.700000000000e+01 1.971875000000e+01 5.574160757598e-09-2.294580175503e-01
    9.536743164062e-07 6.927138660103e-03 2.957880496979e-06 5.153724943161e+03
    3.816000000000e+05 5.587935447693e-08 1.207800822392e+00 6.146728992462e-08
    9.377993966405e-01 3.074687500000e+02 3.884527513134e-01-8.880727060786e-09
   -9.178953768839e-11 1.000000000000e+00 2.205000000000e+03 0.000000000000e+00
    2.400000000000e+00 0.000000000000e+00 6.984919309616e-09 3.700000000000e+01
    3.744000000000e+05 4.000000000000e+00
19 22  4 14 10  0  0.0 1.442078500986e-04 5.002220859751e-12 0.000000000000e+00
    8.000000000000e+01-6.425000000000e+01 3.910877189447e-09 2.958114392652e-01
   -3.406777977943e-06 9.135889122263e-03 1.135282218456e-05 5.153696367264e+03
    3.816000000000e+05 2.235174179077e-08 2.416473974058e+00-2.570450305939e-07
    9.780419147772e-01 1.770625000000e+02 2.035543218351e+00-7.897828976278e-09
   -5.771668984609e-10 1.000000000000e+00 2.205000000000e+03 0.000000000000e+00
    2.400000000000e+00 0.000000000000e+00-1.583248376846e-08 8.000000000000e+01
    3.744000000000e+05 4.000000000000e+00
22 22  4 14 10  0  0.0 2.431641332805e-04 6.025402399246e-12 0.000000000000e+00
    9.200000000000e+01-6.990625000000e+01 4.483043879629e-09-2.213007480119e+00
   -3.602355718613e-06 1.323788485024e-02 1.025386154652e-05 5.153681415558e+03
    3.816000000000e+05 1.713633537292e-07-7.492975744973e-01 8.381903171539e-08
    9.614210119813e-01 1.768750000000e+02-1.859173646479e+00-7.797824810703e-09
   -2.107230631757e-10 1.000000000000e+00 2.205000000000e+03 0.000000000000e+00
    3.400000000000e+00 0.000000000000e+00-9.778887033463e-09 9.200000000000e+01
    3.744000000000e+05 4.000000000000e+00
27 22  4 14 10  0  0.0 1.826784573495e-04 9.208633855451e-12 0.000000000000e+00
    8.400000000000e+01-6.243750000000e+01 3.995880730186e-09-2.052171846818e+00
   -3.274530172348e-06 1.051250868477e-02 9.853392839432e-06 5.153654571533e+03
    3.816000000000e+05 6.705522537231e-08 2.308771661447e+00-1.043081283569e-07
    9.727031781117e-01 1.951562500000e+02 6.672544880449e-01-7.723178844256e-09
   -4.243033882249e-10 1.000000000000e+00 2.205000000000e+03 0.000000000000e+00
    2.400000000000e+00 0.000000000000e+00 1.396983861923e-09 8.400000000000e+01
    3.744000000000e+05 4.000000000000e+00
20 22  4 14 10  0  0.0 5.158334970474e-04-2.273736754432e-13 0.000000000000e+00
    8.200000000000e+01 3.400000000000e+01 5.280577100089e-09 3.022776656198e+00
    1.881271600723e-06 4.865011665970e-03 2.957880496979e-06 5.153545186996e+03
    3.816000000000e+05-8.754432201385e-08-2.035803739192e+00 1.676380634308e-08
    9.422796008133e-01 3.103750000000e+02-3.125949903172e+00-8.616430337481e-09
    3.364425856127e-10 1.000000000000e+00 2.205000000000e+03 0.000000000000e+00
    2.400000000000e+00 0.000000000000e+00-8.381903171539e-09 8.200000000000e+01
    3.744000000000e+05 4.000000000000e+00
13 22  4 14 10  0  0.0 2.939612604678e-04 6.707523425575e-12 0.000000000000e+00
    1.160000000000e+02-7.653125000000e+01 4.325537318849e-09-2.530360549022e+00
   -4.069879651070e-06 5.851375521161e-03 1.073256134987e-05 5.153677818298e+03
    3.816000000000e+05 7.078051567078e-08-6.972957872941e-01-7.823109626770e-08
    9.687539151862e-01 1.759062500000e+02 9.304167117964e-01-7.823183009831e-09
   -2.542963067476e-10 1.000000000000e+00 2.205000000000e+03 0.000000000000e+00
    2.400000000000e+00 0.000000000000e+00-1.117587089539e-08 1.160000000000e+02
    3.744000000000e+05 4.000000000000e+00
25 22  4 14 10  0  0.0 3.117867745459e-04 5.002220859751e-12 0.000000000000e+00
    9.800000000000e+01 1.825000000000e+01 5.127356432119e-09 4.300390313889e-01
    1.054257154465e-06 1.055781240575e-02 3.395602107048e-06 5.153680921555e+03
    3.816000000000e+05-7.823109626770e-08 1.255913943663e+00 9.872019290924e-08
    9.569261757019e-01 3.108437500000e+02 9.983782432841e-01-8.726077761879e-09
   -1.246480492344e-10 1.000000000000e+00 2.205000000000e+03 0.000000000000e+00
    2.400000000000e+00 0.000000000000e+00 5.587935447693e-09 9.800000000000e+01
    3.744000000000e+05 4.000000000000e+00
18 22  4 14 10  0  0.0 1.958250068128e-04-9.436007530894e-12 0.000000000000e+00
    2.360000000000e+02 6.362500000000e+01 4.032667976808e-09 2.300969533120e+00
    3.332272171974e-06 2.199685433879e-03 1.011043787003e-05 5.153612741470e+03
    3.816000000000e+05-5.029141902924e-08-2.906788150297e+00 2.235174179077e-08
    9.715243250763e-01 1.890625000000e+02 3.061805445332e+00-7.849612682162e-09
    3.950164540209e-10 1.000000000000e+00 2.205000000000e+03 0.000000000000e+00
    2.400000000000e+00 0.000000000000e+00-8.381903171539e-09 2.360000000000e+02
    3.744000000000e+05 4.000000000000e+00
23 22  4 14 10  0  0.0-1.483224332333e-05-2.842170943040e-12 0.000000000000e+00
    3.500000000000e+01 7.625000000000e+00 4.805557313608e-09 1.265772545673e+00
    3.073364496231e-07 2.050451817922e-03 3.013759851456e-06 5.153702999115e+03
    3.816000000000e+05 2.607703208923e-08-1.907418680536e+00-3.725290298462e-09
    9.678097902825e-01 3.260312500000e+02 3.002354090133e+00-8.415350533128e-09
    1.685784505406e-10 1.000000000000e+00 2.205000000000e+03 0.000000000000e+00
    2.400000000000e+00 0.000000000000e+00-8.381903171539e-09 5.470000000000e+02
    3.744000000000e+05 4.000000000000e+00
14 22  4 14 10  0  0.0-1.023719087243e-04-2.728484105319e-12 0.000000000000e+00
    1.680000000000e+02 1.096875000000e+01 5.248432904011e-09 7.517025913388e-01
    4.693865776062e-07 1.700305612758e-03 2.684071660042e-06 5.153648239136e+03
    3.816000000000e+05-5.587935447693e-09 1.301156336898e+00-3.725290298462e-09
    9.528418415502e-01 3.196250000000e+02 3.053723421278e+00-8.668575366673e-09
   -1.639353999960e-10 1.000000000000e+00 2.205000000000e+03 0.000000000000e+00
    2.400000000000e+00 0.000000000000e+00-7.450580596924e-09 9.360000000000e+02
    3.744000000000e+05 4.000000000000e+00
11 22  4 14 10  0  0.0-4.045339301229e-05 7.048583938740e-12 0.000000000000e+00
    2.800000000000e+01 6.509375000000e+01 4.199817796412e-09-1.990211889937e+00
    3.524124622345e-06 3.174312878400e-04 1.036189496517e-05 5.153795309067e+03
    3.816000000000e+05 5.587935447693e-09-2.871353696755e+00-1.117587089539e-08
    9.628532965560e-01 1.808125000000e+02 2.680458211478e+00-7.922830017672e-09
    5.121641908372e-10 1.000000000000e+00 2.205000000000e+03 0.000000000000e+00
    2.400000000000e+00 6.300000000000e+01-8.847564458847e-09 7.960000000000e+02
    3.744000000000e+05 4.000000000000e+00
28 22  4 14 10  0  0.0 3.714985214174e-04-3.410605131648e-12 0.000000000000e+00
    6.300000000000e+01 4.156250000000e+00 4.848773399446e-09-1.602600797819e+00
    3.408640623093e-07 1.665044296533e-02 3.345310688019e-06 5.153679365158e+03
    3.816000000000e+05-2.533197402954e-07 1.355440055405e+00 3.855675458908e-07
    9.684802485640e-01 3.202812500000e+02-1.282001004602e+00-8.478210294347e-09
   -2.150089559860e-10 1.000000000000e+00 2.205000000000e+03 0.000000000000e+00
    2.400000000000e+00 6.300000000000e+01-1.117587089539e-08 6.300000000000e+01
    3.744000000000e+05 4.000000000000e+00
22 22  4 14  9 59 44.0 2.431627362967e-04 6.025402399246e-12 0.000000000000e+00
    2.000000000000e+00-6.990625000000e+01 4.483043879629e-09-2.215341422548e+00
   -3.602355718613e-06 1.323788927402e-02 1.025386154652e-05 5.153681421280e+03
    3.815840000000e+05 1.713633537292e-07-7.492974589268e-01 8.381903171539e-08
    9.614210075926e-01 1.768750000000e+02-1.859173432893e+00-7.797824810703e-09
   -2.107230631757e-10 1.000000000000e+00 2.205000000000e+03 0.000000000000e+00
    2.400000000000e+00 0.000000000000e+00-9.778887033463e-09 2.000000000000e+00
    3.759300000000e+05 4.000000000000e+00
 1 22  4 14  9 59 44.0 3.853510133922e-04-8.753886504564e-12 0.000000000000e+00
    8.000000000000e+00 7.637500000000e+01 3.672652980738e-09 2.018682860735e+00
    3.885477781296e-06 1.171633263584e-02 1.115910708904e-05 5.153671003342e+03
    3.815840000000e+05-1.676380634308e-07-2.913734775835e+00-1.695007085800e-07
    9.877294212036e-01 1.774375000000e+02 8.913223941725e-01-7.709606850357e-09
    5.193073455211e-10 1.000000000000e+00 2.205000000000e+03 0.000000000000e+00
    2.400000000000e+00 0.000000000000e+00 5.122274160385e-09 8.000000000000e+00
    3.762900000000e+05 4.000000000000e+00
30 22  4 14  9 59 44.0-5.236924625933e-04-1.705302565824e-12 0.000000000000e+00
    2.000000000000e+00 6.425000000000e+01 5.108069914472e-09 1.373771984260e+00
    3.606081008911e-06 5.684826755896e-03 1.130811870098e-05 5.153792472839e+03
    3.815840000000e+05 7.264316082001e-08 2.326303700344e-01 1.098960638046e-07
    9.365138705446e-01 1.495312500000e+02-2.719293637952e+00-8.391063807203e-09
    3.300137463972e-10 1.000000000000e+00 2.205000000000e+03 0.000000000000e+00
    2.400000000000e+00 0.000000000000e+00 3.725290298462e-09 2.000000000000e+00
    3.776100000000e+05 4.000000000000e+00
